SL-16 R/B               
1 25407U 98045B   26082.20533184 -.00000105  00000+0 -29110-4 0  9992
2 25407  71.0116 153.1532 0007674 346.6411  13.4508 14.16195505429019
ISS (ZARYA)             
1 25544U 98067A   26082.19556657  .00017435  00000+0  32964-3 0  9998
2 25544  51.6344   5.5946 0006192 222.9473 137.1033 15.48483260558424
CZ-4B R/B               
1 25732U 99025C   26082.14103237  .00000036  00000+0  38435-4 0  9998
2 25732  98.6599 126.1023 0036156 307.2154 118.2710 14.18267897390077
OKEAN-O                 
1 25860U 99039A   26082.17055044  .00000736  00000+0  10327-3 0  9996
2 25860  97.9414 141.9232 0000929  81.5659 278.5659 14.80356426436388
SL-16 R/B               
1 25861U 99039B   26081.86762376  .00000587  00000+0  81211-4 0  9990
2 25861  97.9938 140.9429 0014101 210.0978 149.9426 14.81748750438816
DELTA 2 R/B             
1 25876U 99041E   26082.17532979  .00000520  00000+0  12335-3 0  9995
2 25876  51.7602 247.4098 0502616  28.2101 334.5108 14.11868911364938
HELIOS 1B               
1 25977U 99064A   26082.23263635  .00001845  00000+0  20867-3 0  9999
2 25977  98.1680 344.8731 0002073  56.5102 303.6311 14.87749474687277
TERRA                   
1 25994U 99068A   26082.27198037  .00000506  00000+0  11211-3 0  9995
2 25994  97.9565 135.1860 0003421 122.6037 280.0120 14.61028787397069
SL-16 R/B               
1 26070U 00006B   26082.22428296  .00000106  00000+0  78219-4 0  9991
2 26070  71.0008  69.3757 0016065 168.8474 191.3009 14.15824030350476
TITAN 4B R/B            
1 26474U 00047B   26082.21258011  .00005110  00000+0  31887-3 0  9998
2 26474  67.9916   2.4823 0039545  19.5381 340.7273 15.09689149394953
ENVISAT                 
1 27386U 02009A   26082.16079222  .00000134  00000+0  57137-4 0  9998
2 27386  98.3751  35.4392 0001257  81.6169 288.8612 14.39041488261111
IDEFIX & ARIANE 42P R/B 
1 27422U 02021B   26082.06029346  .00000296  00000+0  12906-3 0  9997
2 27422  98.5886  20.5079 0012338 143.4786 216.7241 14.31034913245931
